[{"OBJECT_NAME":"STARLINK-34432","OBJECT_ID":"2025-129Q","EPOCH":"2026-03-09T09:33:47.858112","MEAN_MOTION":14.98326888,"ECCENTRICITY":0.00029628,"INCLINATION":70.0028,"RA_OF_ASC_NODE":75.1898,"ARG_OF_PERICENTER":245.8754,"MEAN_ANOMALY":114.2096,"EPHEMERIS_TYPE":0,"CLASSIFICATION_TYPE":"U","NORAD_CAT_ID":64426,"ELEMENT_SET_NO":999,"REV_AT_EPOCH":4118,"BSTAR":-0.00013251426,"MEAN_MOTION_DOT":-1.674e-5,"MEAN_MOTION_DDOT":0},{"OBJECT_NAME":"FENGYUN 1C DEB","OBJECT_ID":"1999-025BTY","EPOCH":"2026-03-09T14:49:03.533664","MEAN_MOTION":15.05418076,"ECCENTRICITY":0.0035944,"INCLINATION":98.8793,"RA_OF_ASC_NODE":298.6402,"ARG_OF_PERICENTER":319.4464,"MEAN_ANOMALY":105.3063,"EPHEMERIS_TYPE":0,"CLASSIFICATION_TYPE":"U","NORAD_CAT_ID":31436,"ELEMENT_SET_NO":999,"REV_AT_EPOCH":98178,"BSTAR":0.0045436,"MEAN_MOTION_DOT":0.00066638,"MEAN_MOTION_DDOT":0}]
